CSS (TIANHE)            
1 48274U 21035A   24111.79762130  .00028291  00000+0  28871-3 0  9990
2 48274  41.4681  73.6739 0005914  45.0845 315.0474 15.64414921170112
